[{"OBJECT_NAME":"STARLINK-1434","OBJECT_ID":"2020-035BH","EPOCH":"2026-03-09T05:47:35.213856","MEAN_MOTION":15.26724568,"ECCENTRICITY":0.00053438,"INCLINATION":53.0547,"RA_OF_ASC_NODE":22.1128,"ARG_OF_PERICENTER":88.04,"MEAN_ANOMALY":272.121,"EPHEMERIS_TYPE":0,"CLASSIFICATION_TYPE":"U","NORAD_CAT_ID":45712,"ELEMENT_SET_NO":999,"REV_AT_EPOCH":31932,"BSTAR":0.0020295208,"MEAN_MOTION_DOT":0.00054112,"MEAN_MOTION_DDOT":0},{"OBJECT_NAME":"STARLINK-33938","OBJECT_ID":"2025-091D","EPOCH":"2026-03-09T23:10:52.836384","MEAN_MOTION":15.27583945,"ECCENTRICITY":0.00010059,"INCLINATION":43.001,"RA_OF_ASC_NODE":51.0386,"ARG_OF_PERICENTER":176.9868,"MEAN_ANOMALY":183.099,"EPHEMERIS_TYPE":0,"CLASSIFICATION_TYPE":"U","NORAD_CAT_ID":63778,"ELEMENT_SET_NO":999,"REV_AT_EPOCH":4903,"BSTAR":0.00082682102,"MEAN_MOTION_DOT":0.00022562,"MEAN_MOTION_DDOT":0}]
